NORAD_CAT_ID,OBJECT_NAME,OBJECT_TYPE,EPOCH,MEAN_MOTION,ECCENTRICITY,INCLINATION,RA_OF_ASC_NODE,ARG_OF_PERICENTER,MEAN_ANOMALY,BSTAR,MEAN_MOTION_DOT,MEAN_MOTION_DDOT,TLE_LINE0,TLE_LINE1,TLE_LINE2,SEMIMAJOR_AXIS,PERIOD,APOGEE,PERIGEE,DECAYED
51126.0,STARLINK-3386,PAYLOAD,2022-09-02 13:27:27,15.08832586,0.0001766,53.2166,303.812,41.2183,318.8942,2.2446e-05,6.9e-07,0.0,0 STARLINK-3386,1 51126U 22005Y   22245.56073026  .00000069  00000-0  22446-4 0  9995,2 51126  53.2166 303.8120 0001766  41.2183 318.8942 15.08832586 34880,6917.903,95.438,540.99,538.5459999999998,0.0
51126.0,STARLINK-3386,PAYLOAD,2022-09-03 03:45:55,15.08838912,0.0001785,53.2161,301.1353,43.6726,316.4407,1.5504e-05,-4.1e-07,0.0,0 STARLINK-3386,1 51126U 22005Y   22246.15688734 -.00000041  00000-0  15504-4 0  9997,2 51126  53.2161 301.1353 0001785  43.6726 316.4407 15.08838912 36087,6917.884,95.438,540.984,538.514,0.0
51126.0,STARLINK-3386,PAYLOAD,2022-09-03 13:18:13,15.08847732,0.0001853,53.2161,299.3513,47.6135,312.5013,-1.579e-05,-5.400000000000002e-06,0.0,0 STARLINK-3386,1 51126U 22005Y   22246.55432333 -.00000540  00000-0 -15790-4 0  9995,2 51126  53.2161 299.3513 0001853  47.6135 312.5013 15.08847732 35031,6917.857,95.437,541.004,538.44,0.0
51126.0,STARLINK-3386,PAYLOAD,2022-09-03 21:15:09,15.08837904,0.0001781,53.216,297.8644,40.0835,320.0289,9.3699e-05,1.203e-05,0.0,0 STARLINK-3386,1 51126U 22005Y   22246.88552622  .00001203  00000-0  93699-4 0  9994,2 51126  53.2160 297.8644 0001781  40.0835 320.0289 15.08837904 35086,6917.887,95.438,540.984,538.52,0.0
51126.0,STARLINK-3386,PAYLOAD,2022-09-04 03:36:42,15.0883568,0.0001793,53.216,296.675,40.6911,319.4215,6.9979e-05,8.26e-06,0.0,0 STARLINK-3386,1 51126U 22005Y   22247.15048841  .00000826  00000-0  69979-4 0  9992,2 51126  53.2160 296.6750 0001793  40.6911 319.4215 15.08835680 36233,6917.894,95.438,540.999,538.518,0.0
51126.0,STARLINK-3386,PAYLOAD,2022-09-04 13:09:01,15.08838274,0.0001894,53.2162,294.891,42.3641,317.7497,7.2485e-05,8.66e-06,0.0,0 STARLINK-3386,1 51126U 22005Y   22247.54792953  .00000866  00000-0  72485-4 0  9995,2 51126  53.2162 294.8910 0001894  42.3641 317.7497 15.08838274 35182,6917.886,95.438,541.061,538.44,0.0
51126.0,STARLINK-3386,PAYLOAD,2022-09-05 03:27:28,15.08847126,0.0001923,53.2161,292.2148,43.1577,316.9566,7.3814e-05,8.87e-06,0.0,0 STARLINK-3386,1 51126U 22005Y   22248.14408327  .00000887  00000-0  73814-4 0  9991,2 51126  53.2161 292.2148 0001923  43.1577 316.9566 15.08847126 36383,6917.859,95.437,541.054,538.393,0.0
51126.0,STARLINK-3386,PAYLOAD,2022-09-05 11:24:25,15.08839765,0.0001924,53.2163,290.7281,42.0997,318.0142,-2.9896e-06,-3.36e-06,0.0,0 STARLINK-3386,1 51126U 22005Y   22248.47528962 -.00000336  00000-0 -29896-5 0  9998,2 51126  53.2163 290.7281 0001924  42.0997 318.0142 15.08839765 36430,6917.880999999999,95.438,541.077,538.415,0.0
51126.0,STARLINK-3386,PAYLOAD,2022-09-05 12:59:48,15.08840257,0.0001928,53.2162,290.4306,42.0758,318.0382,8.831299999999998e-07,-2.74e-06,0.0,0 STARLINK-3386,1 51126U 22005Y   22248.54152908 -.00000274  00000-0  88313-6 0  9999,2 51126  53.2162 290.4306 0001928  42.0758 318.0382 15.08840257 35335,6917.88,95.438,541.078,538.411,0.0
51126.0,STARLINK-3386,PAYLOAD,2022-09-06 09:39:49,15.08828478,0.0001950999999999,53.217,286.5655,42.2625,317.8517,-5.3305e-05,-1.136e-05,0.0,0 STARLINK-3386,1 51126U 22005Y   22249.40265969 -.00001136  00000-0 -53305-4 0  9997,2 51126  53.2170 286.5655 0001951  42.2625 317.8517 15.08828478 36573,6917.916,95.438,541.13,538.431,0.0
51126.0,STARLINK-3386,PAYLOAD,2022-09-06 12:50:35,15.08830845,0.0001948,53.2168,285.9705,42.2606,317.8536,-2.7891e-05,-7.32e-06,0.0,0 STARLINK-3386,1 51126U 22005Y   22249.53513798 -.00000732  00000-0 -27891-4 0  9999,2 51126  53.2168 285.9705 0001948  42.2606 317.8536 15.08830845 35485,6917.908,95.438,541.121,538.4259999999998,0.0
51126.0,STARLINK-3386,PAYLOAD,2022-09-07 07:55:13,15.08837485,0.0001956999999999,53.2167,282.402,42.4219,317.6924,3.7901e-05,3.15e-06,0.0,0 STARLINK-3386,1 51126U 22005Y   22250.33001288  .00000315  00000-0  37901-4 0  9993,2 51126  53.2167 282.4020 0001957  42.4219 317.6924 15.08837485 36711,6917.888000000001,95.438,541.107,538.399,0.0
51126.0,STARLINK-3386,PAYLOAD,2022-09-08 07:46:00,15.08831061,0.0001971,53.2159,277.9399,39.1141,320.9994,5.7425e-05,6.26e-06,0.0,0 STARLINK-3386,1 51126U 22005Y   22251.32361832  .00000626  00000-0  57425-4 0  9995,2 51126  53.2159 277.9399 0001971  39.1141 320.9994 15.08831061 35754,6917.908,95.438,541.136,538.409,0.0
51126.0,STARLINK-3386,PAYLOAD,2022-09-08 09:21:23,15.08830661,0.0001975,53.2161,277.6427,40.8478,319.2662,5.4078e-05,5.72e-06,0.0,0 STARLINK-3386,1 51126U 22005Y   22251.38985907  .00000572  00000-0  54078-4 0  9997,2 51126  53.2161 277.6427 0001975  40.8478 319.2662 15.08830661 35761,6917.909000000002,95.438,541.14,538.408,0.0
51126.0,STARLINK-3386,PAYLOAD,2022-09-09 10:47:33,15.08844479,0.0002083,53.216,272.8842,43.0982,317.0173,5.6603e-05,6.13e-06,0.0,0 STARLINK-3386,1 51126U 22005Y   22252.44969235  .00000613  00000-0  56603-4 0  9993,2 51126  53.2160 272.8842 0002083  43.0982 317.0173 15.08844479 35927,6917.8669999999975,95.437,541.173,538.2909999999998,0.0
51126.0,STARLINK-3386,PAYLOAD,2022-09-10 07:27:34,15.088371,0.0002143,53.2162,269.0186,44.2089,315.9074,6.1862e-05,6.96e-06,0.0,0 STARLINK-3386,1 51126U 22005Y   22253.31081476  .00000696  00000-0  61862-4 0  9996,2 51126  53.2162 269.0186 0002143  44.2089 315.9074 15.08837100 37164,6917.889,95.438,541.237,538.2719999999998,0.0
51126.0,STARLINK-3386,PAYLOAD,2022-09-10 10:38:20,15.08835818,0.0002159,53.2161,268.4239,44.1479,315.9685,4.8805e-05,4.88e-06,0.0,0 STARLINK-3386,1 51126U 22005Y   22253.44329622  .00000488  00000-0  48805-4 0  9999,2 51126  53.2161 268.4239 0002159  44.1479 315.9685 15.08835818 36075,6917.893,95.438,541.252,538.265,0.0
51126.0,STARLINK-3386,PAYLOAD,2022-09-11 07:18:21,15.08839961,0.0002171999999999,53.2168,264.5586,44.4668,315.6498,3.6275e-06,-2.31e-06,0.0,0 STARLINK-3386,1 51126U 22005Y   22254.30441389 -.00000231  00000-0  36275-5 0  9996,2 51126  53.2168 264.5586 0002172  44.4668 315.6498 15.08839961 36209,6917.880999999999,95.438,541.248,538.243,0.0
51126.0,STARLINK-3386,PAYLOAD,2022-09-12 03:58:22,15.08839634,0.0002218999999999,53.216,260.6928,40.0792,320.0363,5.3803e-05,5.68e-06,0.0,0 STARLINK-3386,1 51126U 22005Y   22255.16553276  .00000568  00000-0  53803-4 0  9997,2 51126  53.2160 260.6928 0002219  40.0792 320.0363 15.08839634 37445,6917.882,95.438,541.2819999999998,538.211,0.0
51126.0,STARLINK-3386,PAYLOAD,2022-09-12 10:19:54,15.08841884,0.0002185,53.216,259.5029,42.1602,317.9558,6.990100000000001e-05,8.24e-06,0.0,0 STARLINK-3386,1 51126U 22005Y   22255.43049068  .00000824  00000-0  69901-4 0  9997,2 51126  53.2160 259.5029 0002185  42.1602 317.9558 15.08841884 36371,6917.875,95.437,541.251,538.2280000000002,0.0
51126.0,STARLINK-3386,PAYLOAD,2022-09-13 10:10:41,15.08836857,0.0002204,53.2157,255.0426,43.3555,316.761,6.3949e-05,7.299999999999999e-06,0.0,0 STARLINK-3386,1 51126U 22005Y   22256.42409427  .00000730  00000-0  63949-4 0  9998,2 51126  53.2157 255.0426 0002204  43.3555 316.7610 15.08836857 36528,6917.89,95.438,541.28,538.23,0.0
51126.0,STARLINK-3386,PAYLOAD,2022-09-13 16:32:14,15.08839961,0.0002218,53.2157,253.8531,43.8727,316.2441,0.00010049,1.311e-05,0.0,0 STARLINK-3386,1 51126U 22005Y   22256.68905170  .00001311  00000-0  10049-3 0  9990,2 51126  53.2157 253.8531 0002218  43.8727 316.2441 15.08839961 36562,6917.880999999999,95.438,541.28,538.211,0.0
51126.0,STARLINK-3386,PAYLOAD,2022-09-14 03:39:55,15.08908216,0.0001924,53.2156,251.7712,35.1856,324.9263,-0.0009955,-0.00016127,0.0,0 STARLINK-3386,1 51126U 22005Y   22257.15272527 -.00016127  00000-0 -99550-3 0  9993,2 51126  53.2156 251.7712 0001924  35.1856 324.9263 15.08908216 37748,6917.672,95.433,540.868,538.206,0.0
51126.0,STARLINK-3386,PAYLOAD,2022-09-14 08:26:05,15.08840839,0.0002105,53.2156,250.8791,44.4068,315.7093,-7.8961e-05,-1.545e-05,0.0,0 STARLINK-3386,1 51126U 22005Y   22257.35145735 -.00001545  00000-0 -78961-4 0  9997,2 51126  53.2156 250.8791 0002105  44.4068 315.7093 15.08840839 37773,6917.878000000002,95.438,541.1990000000002,538.2869999999998,0.0
51126.0,STARLINK-3386,PAYLOAD,2022-09-15 06:41:29,15.0884085,0.0001543,53.216,246.7163,58.5282,301.586,7.5298e-05,9.11e-06,0.0,0 STARLINK-3386,1 51126U 22005Y   22258.27880961  .00000911  00000-0  75298-4 0  9990,2 51126  53.2160 246.7163 0001543  58.5282 301.5860 15.08840850 36805,6917.878000000002,95.438,540.81,538.675,0.0
51126.0,STARLINK-3386,PAYLOAD,2022-09-15 17:49:12,15.08830951,0.0002018,53.2163,244.6349,48.197,311.9194,-6.049300000000001e-05,-1.251e-05,0.0,0 STARLINK-3386,1 51126U 22005Y   22258.74250301 -.00001251  00000-0 -60493-4 0  9992,2 51126  53.2163 244.6349 0002018  48.1970 311.9194 15.08830951 36871,6917.908,95.438,541.169,538.377,0.0
51126.0,STARLINK-3386,PAYLOAD,2022-09-16 04:56:53,15.0883593,0.0001961,53.2157,242.5527,49.6889,310.4274,7.3684e-05,8.85e-06,0.0,0 STARLINK-3386,1 51126U 22005Y   22259.20617635  .00000885  00000-0  73684-4 0  9997,2 51126  53.2157 242.5527 0001961  49.6889 310.4274 15.08835930 38057,6917.893,95.438,541.114,538.401,0.0
51126.0,STARLINK-3386,PAYLOAD,2022-09-16 08:07:39,15.08837413,0.0002031,53.2157,241.9579,48.8068,311.3099,8.0739e-05,9.97e-06,0.0,0 STARLINK-3386,1 51126U 22005Y   22259.33865548  .00000997  00000-0  80739-4 0  9992,2 51126  53.2157 241.9579 0002031  48.8068 311.3099 15.08837413 36967,6917.888000000001,95.438,541.158,538.3480000000002,0.0
51126.0,STARLINK-3386,PAYLOAD,2022-09-16 17:39:57,15.08878545,0.0001841999999999,53.2154,240.1737,48.8006,311.3144,-0.00046423,-7.677e-05,0.0,0 STARLINK-3386,1 51126U 22005Y   22259.73608379 -.00007677  00000-0 -46423-3 0  9998,2 51126  53.2154 240.1737 0001842  48.8006 311.3144 15.08878545 37022,6917.763000000001,95.435,540.9019999999998,538.3530000000002,0.0
